{
"type": "FeatureCollection",
"name": "Ibadan_North_LGA",
"crs": { "type": "name", "properties": { "name": "urn:ogc:def:crs:OGC:1.3:CRS84" } },
"features": [
{"type":"Feature","properties":{"globalid":"fb782fd3-1a49-4bfa-9a64-c9561cc1c0bc","uniq_id":28884,"timestamp":"2019-08-09","editor":"nuraddeen.isah","lganame":"Ibadan North","lgacode":"31006","statename":"Oyo","statecode":"OY","source":"eHA_Polio","amapcode":"NIE OYS BDJ"},"geometry":{"type":"MultiPolygon","coordinates":[[[[3.899130778662538,7.379599147982333],[3.898879044032697,7.379420504852476],[3.898823024363139,7.379595743149082],[3.898696373738687,7.3797116477744],[3.898625606986229,7.379884787053356],[3.898418788995968,7.380139858167979],[3.898015944880001,7.380597104073161],[3.897604641740884,7.380811017714336],[3.897206688138169,7.381154532655614],[3.897088354444065,7.381343778792427],[3.897007761698887,7.381533915258046],[3.897040469142382,7.382123187035518],[3.897188309592877,7.382629082666085],[3.897287196347065,7.382809844598683],[3.897647244424832,7.38332814098095],[3.897808858891779,7.383883456156639],[3.897831835670729,7.384918384276034],[3.897027616931041,7.384882087638289],[3.89612551957714,7.384877038844309],[3.894658147055907,7.384793520604546],[3.893714331051569,7.384887840601436],[3.893498855287987,7.385037666754954],[3.893362314819001,7.385108646646756],[3.893398544906972,7.385486275571225],[3.893443715155399,7.385740653308574],[3.893512658082727,7.385945106981126],[3.893599431868324,7.38608061592771],[3.893793187205858,7.386244654966902],[3.894016658841792,7.386430088877546],[3.894120074581849,7.386579862870406],[3.894178320073479,7.386737958290212],[3.894200904748004,7.386926958012737],[3.894217185175023,7.387076306626284],[3.89422023927267,7.387077024285304],[3.89422646168191,7.387548044206937],[3.894189612860373,7.387879687197881],[3.894132556272496,7.388097215214373],[3.894055291918221,7.388289781648155],[3.893879367438899,7.388602404877133],[3.893672535958842,7.388998236079772],[3.893585762173245,7.389177727270351],[3.893506772019975,7.389324320361141],[3.893386904981753,7.389508886426029],[3.892983576131201,7.390257279749733],[3.892687033679692,7.39081240426907],[3.892520184259126,7.391129208446273],[3.892365338089917,7.391294394121019],[3.891954454034874,7.391646754793953],[3.891637537442421,7.391984389068341],[3.891491713271989,7.392242048431854],[3.891375742996217,7.392530426837766],[3.891203048881664,7.392864425153164],[3.891130540142342,7.39312950122553],[3.891088935705852,7.393408841444909],[3.891081804082035,7.393790407601273],[3.891136482862464,7.394136313839851],[3.891206614693544,7.394589201630424],[3.891249408033786,7.39490895828186],[3.891256539657604,7.395122919587095],[3.891267237992679,7.395240600373484],[3.891268120227608,7.395476139112588],[3.891285142595279,7.395993181839913],[3.891294075561177,7.396877873714971],[3.891239030756708,7.397624930646089],[3.891224307056177,7.397824763601989],[3.891016494415737,7.398129898176308],[3.890727735596556,7.398576234405766],[3.89008870343099,7.399526023707097],[3.889728746184744,7.400005733777618],[3.886781884576351,7.396080284777383],[3.886159962912018,7.398489288849646],[3.885718079226024,7.399487685608278],[3.884588642252083,7.399353977104397],[3.882901379195346,7.398810925983469],[3.882605528322529,7.398704324844743],[3.882358417107298,7.398577576194214],[3.882327785299083,7.398778390310497],[3.882290344723685,7.398945167785314],[3.882307362594759,7.399190229445594],[3.882419683421688,7.399523784395171],[3.882640918443656,7.399915201725207],[3.883008510034756,7.400463185627586],[3.883273992600721,7.400779722706091],[3.883600740581755,7.401440027435342],[3.883619748652507,7.401615851190627],[3.883667394734516,7.402056572053198],[3.883672712425778,7.403126312029713],[3.883903498247889,7.4031043325989],[3.884352248257699,7.403157450156243],[3.884721959550859,7.403174325035138],[3.884793672390117,7.403177597668048],[3.885134356265553,7.403217893590977],[3.885635044821527,7.403358151857276],[3.885696667267439,7.403375414343941],[3.886046508939273,7.403617189881459],[3.886530060014309,7.404007328375542],[3.886828616047865,7.404274746282567],[3.887065222282217,7.404536053296283],[3.887198606130823,7.404714337596658],[3.887288355773023,7.405027547183579],[3.887313999041851,7.405316945420736],[3.887356125984468,7.40554589932384],[3.88742572901424,7.40568327166568],[3.887306326026192,7.405966464580729],[3.887255154601746,7.406551232553397],[3.887267728922609,7.407378094423564],[3.887451148351886,7.408541481704049],[3.887551127782388,7.409547686376698],[3.887376448864075,7.409972739250577],[3.887085315834724,7.410325009091935],[3.886575833707809,7.410648166080023],[3.886136225306586,7.410974235072956],[3.885807245208241,7.411282834735061],[3.885507378862485,7.411734090256118],[3.885027009588896,7.412255216804851],[3.884680562857739,7.412543437829413],[3.884380695612663,7.41272976296824],[3.884118677235222,7.412761786926978],[3.883553186230586,7.412499445692902],[3.883542235186042,7.412499767650218],[3.883006551311325,7.412523059191869],[3.882354415124212,7.412820014432157],[3.881929361351013,7.413280003269563],[3.881486840045682,7.413804040923822],[3.881108367557147,7.414275675981685],[3.880613442756214,7.414677439112552],[3.880019533174959,7.414881230884134],[3.880112694845025,7.415469319153829],[3.88027431560721,7.416006021960413],[3.879965896708825,7.416955833744794],[3.879776112777449,7.416987366673709],[3.879512158159628,7.417128231083041],[3.87905425035342,7.417571486235147],[3.87874287178613,7.417943308237113],[3.878237341280339,7.418425027393141],[3.877885667689441,7.418516608954405],[3.87771715812039,7.419403119258618],[3.877614665084764,7.42004360023202],[3.877575564360882,7.42032526340023],[3.878220443019075,7.420466029783483],[3.878900504055082,7.420824863776488],[3.879079674187665,7.420932988366758],[3.879471756116686,7.421269379778096],[3.878691814575632,7.421923081684895],[3.878433122790454,7.422141484741758],[3.877693094960421,7.422674771923255],[3.877359128121327,7.422849708047636],[3.876456886875872,7.423283335057931],[3.876630414661975,7.423678682425304],[3.876618013010955,7.423803154891743],[3.876080510707027,7.424145286675696],[3.876160026963703,7.424334004910463],[3.876171690271349,7.4244697117079],[3.875702980708013,7.424631568991742],[3.875360626791519,7.424671152651626],[3.8746172642754,7.424723950050293],[3.874033123130175,7.424676662797822],[3.87334908799005,7.424733358757521],[3.872885396643767,7.424737486645768],[3.872670502741585,7.424871542287917],[3.87224540040495,7.425128451616786],[3.870324616687753,7.425449348608595],[3.865282244779848,7.425445108305155],[3.865073558897677,7.428519339995603],[3.865097581588145,7.430802197963089],[3.865840550201256,7.432011590062871],[3.869930633591935,7.433390679736135],[3.872834647001412,7.433598502269092],[3.874272955232755,7.434528101790534],[3.876033519331486,7.434691158770022],[3.877639742680003,7.434733640944842],[3.879117755979678,7.434653288318657],[3.879979848791038,7.434599007937891],[3.879991071430823,7.435249875181626],[3.87998545966127,7.436332783930879],[3.879992941121372,7.437621426987334],[3.879992941121372,7.438592118331655],[3.879968627050573,7.439084008819975],[3.878652930588316,7.438976001141612],[3.877429631372422,7.43896872292828],[3.877129699376155,7.439102157138905],[3.877034357749437,7.43931936589604],[3.876963272636999,7.4396288262094],[3.877010853068441,7.442043194737721],[3.877054700414135,7.443576744771008],[3.877009245080671,7.444468991850556],[3.876617968044854,7.445159375304968],[3.879337190558942,7.445955179088287],[3.880239126034894,7.448634797258137],[3.880239147618624,7.449478840676022],[3.880321340257694,7.451515441784238],[3.881042521894926,7.453092579259192],[3.881812682409418,7.453232942746183],[3.882832242913707,7.4535894088242],[3.88426285744498,7.453649977264661],[3.884683446084239,7.453898775608081],[3.885818751134479,7.454220028731413],[3.88777636928404,7.454821227317836],[3.890964189845533,7.455956104290806],[3.891712822388911,7.456918401363168],[3.892008695744778,7.457035347403405],[3.892772415314766,7.457108187093183],[3.893943418054334,7.457725355840523],[3.895575600333757,7.45843729964173],[3.897213820661364,7.459373139558807],[3.898747305044139,7.460417640062076],[3.898843750139008,7.46111214061284],[3.901048174633615,7.462001690625584],[3.902375680992918,7.46294709393328],[3.903505805048894,7.46415222774317],[3.904585576063539,7.464566245036224],[3.905867546150375,7.464584429327999],[3.907553808261696,7.457392734387213],[3.907257751444149,7.45621993570154],[3.907132349978042,7.454417454202201],[3.909355421015903,7.451846787998932],[3.910686489589864,7.451532508218747],[3.911888149318656,7.451107305158075],[3.913274678183882,7.451255202265827],[3.914291466977659,7.451236714902507],[3.9148553221155,7.451218228438563],[3.9151141407051,7.451541750551371],[3.915983033290388,7.451541750551371],[3.916269581575989,7.451236714902507],[3.916814951149149,7.450931678354323],[3.917351075691613,7.450940921586323],[3.917887200234134,7.451107305158075],[3.918672901033631,7.451144279884659],[3.919301460593999,7.451199741075243],[3.919708176291351,7.451236714902507],[3.919976238112952,7.451550994682691],[3.920919079252144,7.451486290260164],[3.920734208317128,7.449175406719689],[3.920697233590488,7.448195592652553],[3.920771182144392,7.447188047990096],[3.92113167988316,7.44552421317195],[3.921704779152265,7.443980543067653],[3.922952655041058,7.44199318433806],[3.925004719092556,7.439950362619186],[3.926418980351684,7.439109202427801],[3.929007168046439,7.438166362187928],[3.931465947795289,7.437297469602584],[3.932353326844634,7.436539500297727],[3.93305583495885,7.435448763849422],[3.933351628275091,7.434478193014229],[3.934371495448204,7.429896776714941],[3.934946241375997,7.426695972641085],[3.935492273749503,7.4250195509116],[3.936145912703751,7.423787825048123],[3.936608622889707,7.423113963038986],[3.93711766794604,7.422399791617124],[3.937950968062751,7.421578627851432],[3.938860106209006,7.420708440242379],[3.940188823955111,7.419529316624732],[3.939966760657512,7.41946393231467],[3.939826419653571,7.419452653916892],[3.9393191327718,7.419165255771986],[3.938937222175127,7.418947296980207],[3.938547595395278,7.418522950973454],[3.938356638747905,7.418318492804246],[3.938294915577956,7.418181544942399],[3.938208118409989,7.41806002764821],[3.938086601115799,7.418063884840478],[3.937980514389267,7.41811017834209],[3.937930363695386,7.418098604966701],[3.937877951206531,7.418048308582627],[3.937802881198081,7.417976272886733],[3.937663219182241,7.41782953140779],[3.937351710213306,7.417526701795907],[3.936938936682623,7.417160220867572],[3.936356426008274,7.416566135918458],[3.935955225853036,7.4161900106605],[3.935781629718463,7.416180367230197],[3.935471085722099,7.416205442127477],[3.935141253066433,7.416280666819375],[3.934813348557213,7.416373252024016],[3.934628179946571,7.416438833285554],[3.934479658709336,7.416514057977452],[3.934365856699003,7.41652563135284],[3.934172971905184,7.416537203828966],[3.933928009170359,7.416474515686389],[3.933737053422306,7.416361678648627],[3.9337225869279,7.416226659832546],[3.933697512030619,7.415971086896207],[3.933647362236002,7.415636432975077],[3.933602997780156,7.415401112771178],[3.933526809015063,7.415212086968268],[3.933204690743935,7.41459292712193],[3.932959728009109,7.41412807475092],[3.932670400818381,7.413618859722646],[3.932384931719298,7.4132562368859],[3.932110405570825,7.412926094863451],[3.931937439861031,7.412718088868758],[3.931607607205365,7.412330391134674],[3.931138896742766,7.411744020570154],[3.930710694443064,7.411277240951961],[3.930448371195439,7.411003345228266],[3.930141684391288,7.410681226957081],[3.929806064598267,7.410332105642226],[3.92960932261218,7.410089071953166],[3.929420295909949,7.409755381205912],[3.929204265264673,7.409356110096439],[3.928835855290515,7.408736951149422],[3.928775553948697,7.408627163712708],[3.928480947737569,7.408090787359981],[3.928193549592663,7.407595073853599],[3.927977104359911,7.407104166324245],[3.927819353380528,7.406746381840094],[3.927645757245955,7.406352896968656],[3.927298564976866,7.405542782273642],[3.927061316626521,7.405099146708324],[3.926581033687796,7.40433918180787],[3.926314334339111,7.403932529962333],[3.925649669696554,7.403045734573027],[3.925325801344684,7.402658267065419],[3.925238558112994,7.402543426338127],[3.925007096000741,7.402186589739358],[3.924202049884741,7.401166048074685],[3.923125349155612,7.399876277268447],[3.921180813443812,7.397740347838806],[3.920016025019606,7.396376955831897],[3.918923508812952,7.39536016793744],[3.918412574280921,7.39505056822918],[3.918136634398195,7.394839301292791],[3.918047891097331,7.394771356612864],[3.917857114314415,7.394666292415536],[3.917835255392788,7.394669545263355],[3.917742196245399,7.394606327420149],[3.916998057614308,7.394159016325602],[3.916089721663354,7.393531765278794],[3.915405130742215,7.393127277202154],[3.914019598325865,7.39236170682733],[3.913079313059882,7.391819387754595],[3.911925483774098,7.391189439640982],[3.911220022286273,7.390978125939796],[3.910747322431007,7.390815027591486],[3.909998269004973,7.390422265774987],[3.90931869270355,7.390052181263229],[3.909136725679389,7.389945271656984],[3.908078697573899,7.389036745949113],[3.907090481140813,7.388105526748689],[3.905727580163727,7.386803152843299],[3.904698654119613,7.385862333380032],[3.904596185365733,7.385774187229003],[3.904460661130656,7.385670615906236],[3.904293219956173,7.385503145953464],[3.902778177071241,7.384053292225701],[3.902613507607327,7.383894859560144],[3.902432367060158,7.383730440107797],[3.902232436078123,7.383543789414375],[3.90205475702146,7.383377912160938],[3.901741244362995,7.383118740137775],[3.901525267677016,7.382916698446934],[3.901549856041072,7.382882275096961],[3.900037547095167,7.381460912790942],[3.899601854342166,7.380487277965528],[3.899401576221805,7.380066387154102],[3.89927651200145,7.379817747990728],[3.899130778662538,7.379599147982333]]]]}}
]
}
